[Satellite]
VERSION=1.1
NAME=IRIDIUM 33 [-]
NICKNAME=IRIDIUM 33 [-]
TLE1=1 24946U 97051C   20158.11304032  .00000074  00000-0  19581-4 0  9996
TLE2=2 24946  86.3903 192.6387 0006282 321.3452  38.7293 14.33685419189475
STATUS=2
